start=new Date('2021-12-02T00:00:00.000Z').valueOf();
sats=[{"MEAN_MOTION_DOT":"0.00000251","REF_FRAME":"TEME","TLE_LINE2":"2 46558  53.0544 321.6345 0001688  63.2702 296.8459 15.06397842 64668","EPOCH":"2021-12-01T09:06:58.533696","MEAN_ANOMALY":"296.8459","MEAN_MOTION_DDOT":"0.0000000000000","SITE":"AFETR","COUNTRY_CODE":"US","TLE_LINE1":"1 46558U 20070AC  21335.37984414  .00000251  00000-0  35764-4 0  9998","ELEMENT_SET_NO":"999","RA_OF_ASC_NODE":"321.6345","BSTAR":"0.00003576400000","ARG_OF_PERICENTER":"63.2702","ECCENTRICITY":"0.00016880","EPHEMERIS_TYPE":"0","CENTER_NAME":"EARTH","TIME_SYSTEM":"UTC","CLASSIFICATION_TYPE":"U","LAUNCH_DATE":"2020-10-06","INCLINATION":"53.0544","MEAN_MOTION":"15.06397842","NORAD_CAT_ID":"46558","SEMIMAJOR_AXIS":"6925.355","FILE":"3229140","DECAY_DATE":null,"PERIOD":"95.592","REV_AT_EPOCH":"6466","RCS_SIZE":"LARGE","GP_ID":"190859540","PERIAPSIS":"546.051","OBJECT_ID":"2020-070AC","OBJECT_NAME":"STARLINK-1680","APOAPSIS":"548.389","MEAN_ELEMENT_THEORY":"SGP4","OBJECT_TYPE":"PAYLOAD"},{"INCLINATION":"53.0550","MEAN_MOTION":"15.06398294","NORAD_CAT_ID":"46559","EPHEMERIS_TYPE":"0","CENTER_NAME":"EARTH","TIME_SYSTEM":"UTC","CLASSIFICATION_TYPE":"U","LAUNCH_DATE":"2020-10-06","OBJECT_ID":"2020-070AD","OBJECT_NAME":"STARLINK-1681","APOAPSIS":"548.429","MEAN_ELEMENT_THEORY":"SGP4","OBJECT_TYPE":"PAYLOAD","PERIOD":"95.592","FILE":"3229351","DECAY_DATE":null,"SEMIMAJOR_AXIS":"6925.354","RCS_SIZE":"LARGE","REV_AT_EPOCH":"6494","GP_ID":"190866738","PERIAPSIS":"546.008","MEAN_ANOMALY":"298.6032","MEAN_MOTION_DDOT":"0.0000000000000","MEAN_MOTION_DOT":"0.00000923","REF_FRAME":"TEME","TLE_LINE2":"2 46559  53.0550 305.4919 0001748  61.5133 298.6032 15.06398294 64949","EPOCH":"2021-12-01T15:12:32.846400","BSTAR":"0.00008083000000","ARG_OF_PERICENTER":"61.5133","ECCENTRICITY":"0.00017480","SITE":"AFETR","COUNTRY_CODE":"US","TLE_LINE1":"1 46559U 20070AD  21335.63371350  .00000923  00000-0  80830-4 0  9997","RA_OF_ASC_NODE":"305.4919","ELEMENT_SET_NO":"999"},{"BSTAR":"0.00007071400000","ARG_OF_PERICENTER":"65.3662","ECCENTRICITY":"0.00018110","COUNTRY_CODE":"US","TLE_LINE1":"1 46560U 20070AE  21335.26189683  .00000772  00000-0  70714-4 0  9996","SITE":"AFETR","ELEMENT_SET_NO":"999","RA_OF_ASC_NODE":"322.1732","MEAN_MOTION_DDOT":"0.0000000000000","MEAN_ANOMALY":"294.7515","MEAN_MOTION_DOT":"0.00000772","EPOCH":"2021-12-01T06:17:07.886112","TLE_LINE2":"2 46560  53.0541 322.1732 0001811  65.3662 294.7515 15.06395221 64681","REF_FRAME":"TEME","OBJECT_ID":"2020-070AE","MEAN_ELEMENT_THEORY":"SGP4","APOAPSIS":"548.482","OBJECT_TYPE":"PAYLOAD","OBJECT_NAME":"STARLINK-1706","FILE":"3228713","SEMIMAJOR_AXIS":"6925.363","DECAY_DATE":null,"PERIOD":"95.592","RCS_SIZE":"LARGE","REV_AT_EPOCH":"6468","PERIAPSIS":"545.974","GP_ID":"190828773","INCLINATION":"53.0541","NORAD_CAT_ID":"46560","MEAN_MOTION":"15.06395221","EPHEMERIS_TYPE":"0","CLASSIFICATION_TYPE":"U","TIME_SYSTEM":"UTC","LAUNCH_DATE":"2020-10-06","CENTER_NAME":"EARTH"},{"INCLINATION":"53.0566","MEAN_MOTION":"15.06389299","NORAD_CAT_ID":"46561","EPHEMERIS_TYPE":"0","TIME_SYSTEM":"UTC","CLASSIFICATION_TYPE":"U","LAUNCH_DATE":"2020-10-06","CENTER_NAME":"EARTH","OBJECT_ID":"2020-070AF","MEAN_ELEMENT_THEORY":"SGP4","APOAPSIS":"548.566","OBJECT_TYPE":"PAYLOAD","OBJECT_NAME":"STARLINK-1709","DECAY_DATE":null,"FILE":"3229140","PERIOD":"95.593","SEMIMAJOR_AXIS":"6925.381","REV_AT_EPOCH":"6468","RCS_SIZE":"LARGE","PERIAPSIS":"545.927","GP_ID":"190860792","MEAN_MOTION_DDOT":"0.0000000000000","MEAN_ANOMALY":"295.9994","MEAN_MOTION_DOT":"0.00000322","TLE_LINE2":"2 46561  53.0566 321.8077 0001905  64.1191 295.9994 15.06389299 64687","EPOCH":"2021-12-01T08:13:54.449184","REF_FRAME":"TEME","BSTAR":"0.00004051700000","ARG_OF_PERICENTER":"64.1191","ECCENTRICITY":"0.00019050","COUNTRY_CODE":"US","TLE_LINE1":"1 46561U 20070AF  21335.34299131  .00000322  00000-0  40517-4 0  9995","SITE":"AFETR","RA_OF_ASC_NODE":"321.8077","ELEMENT_SET_NO":"999"},{"BSTAR":"0.00006369300000","ARG_OF_PERICENTER":"49.0169","ECCENTRICITY":"0.00018950","COUNTRY_CODE":"US","TLE_LINE1":"1 46562U 20070AG  21335.34529231  .00000667  00000-0  63693-4 0  9995","SITE":"AFETR","RA_OF_ASC_NODE":"316.7922","ELEMENT_SET_NO":"999","MEAN_MOTION_DDOT":"0.0000000000000","MEAN_ANOMALY":"311.0984","MEAN_MOTION_DOT":"0.00000667","EPOCH":"2021-12-01T08:17:13.255584","TLE_LINE2":"2 46562  53.0557 316.7922 0001895  49.0169 311.0984 15.06397125 64759","REF_FRAME":"TEME","OBJECT_ID":"2020-070AG","MEAN_ELEMENT_THEORY":"SGP4","APOAPSIS":"548.535","OBJECT_TYPE":"PAYLOAD","OBJECT_NAME":"STARLINK-1714","DECAY_DATE":null,"FILE":"3229140","SEMIMAJOR_AXIS":"6925.357","PERIOD":"95.592","REV_AT_EPOCH":"6475","RCS_SIZE":"LARGE","PERIAPSIS":"545.910","GP_ID":"190860040","INCLINATION":"53.0557","MEAN_MOTION":"15.06397125","NORAD_CAT_ID":"46562","EPHEMERIS_TYPE":"0","CLASSIFICATION_TYPE":"U","TIME_SYSTEM":"UTC","LAUNCH_DATE":"2020-10-06","CENTER_NAME":"EARTH"},{"ARG_OF_PERICENTER":"57.5427","ECCENTRICITY":"0.00016860","BSTAR":"0.00002788400000","ELEMENT_SET_NO":"999","RA_OF_ASC_NODE":"316.2629","SITE":"AFETR","TLE_LINE1":"1 46563U 20070AH  21335.45955522  .00000134  00000-0  27884-4 0  9995","COUNTRY_CODE":"US","MEAN_ANOMALY":"302.5724","MEAN_MOTION_DDOT":"0.0000000000000","REF_FRAME":"TEME","EPOCH":"2021-12-01T11:01:45.571008","TLE_LINE2":"2 46563  53.0532 316.2629 0001686  57.5427 302.5724 15.06395611 64778","MEAN_MOTION_DOT":"0.00000134","OBJECT_NAME":"STARLINK-1730","OBJECT_TYPE":"PAYLOAD","MEAN_ELEMENT_THEORY":"SGP4","APOAPSIS":"548.395","OBJECT_ID":"2020-070AH","GP_ID":"190860290","PERIAPSIS":"546.059","RCS_SIZE":"LARGE","REV_AT_EPOCH":"6477","FILE":"3229140","SEMIMAJOR_AXIS":"6925.362","DECAY_DATE":null,"PERIOD":"95.592","MEAN_MOTION":"15.06395611","NORAD_CAT_ID":"46563","INCLINATION":"53.0532","CENTER_NAME":"EARTH","LAUNCH_DATE":"2020-10-06","TIME_SYSTEM":"UTC","CLASSIFICATION_TYPE":"U","EPHEMERIS_TYPE":"0"},{"EPHEMERIS_TYPE":"0","CLASSIFICATION_TYPE":"U","TIME_SYSTEM":"UTC","LAUNCH_DATE":"2020-10-06","CENTER_NAME":"EARTH","INCLINATION":"53.0555","NORAD_CAT_ID":"46564","MEAN_MOTION":"15.06393194","PERIOD":"95.593","FILE":"3229140","DECAY_DATE":null,"SEMIMAJOR_AXIS":"6925.369","RCS_SIZE":"LARGE","REV_AT_EPOCH":"6476","PERIAPSIS":"545.902","GP_ID":"190861041","OBJECT_ID":"2020-070AJ","APOAPSIS":"548.567","MEAN_ELEMENT_THEORY":"SGP4","OBJECT_TYPE":"PAYLOAD","OBJECT_NAME":"STARLINK-1733","MEAN_MOTION_DOT":"-0.00001207","EPOCH":"2021-12-01T08:59:41.271072","TLE_LINE2":"2 46564  53.0555 316.6625 0001924  46.8292 313.2858 15.06393194 64760","REF_FRAME":"TEME","MEAN_MOTION_DDOT":"0.0000000000000","MEAN_ANOMALY":"313.2858","COUNTRY_CODE":"US","TLE_LINE1":"1 46564U 20070AJ  21335.37478323 -.00001207  00000-0 -62164-4 0  9990","SITE":"AFETR","ELEMENT_SET_NO":"999","RA_OF_ASC_NODE":"316.6625","BSTAR":"-0.00006216400000","ECCENTRICITY":"0.00019240","ARG_OF_PERICENTER":"46.8292"},{"BSTAR":"0.00003763700000","ARG_OF_PERICENTER":"61.8342","ECCENTRICITY":"0.00016760","SITE":"AFETR","COUNTRY_CODE":"US","TLE_LINE1":"1 46565U 20070AK  21335.35266547  .00000279  00000-0  37637-4 0  9995","ELEMENT_SET_NO":"999","RA_OF_ASC_NODE":"316.7052","MEAN_ANOMALY":"298.2816","MEAN_MOTION_DDOT":"0.0000000000000","MEAN_MOTION_DOT":"0.00000279","REF_FRAME":"TEME","TLE_LINE2":"2 46565  53.0647 316.7052 0001676  61.8342 298.2816 15.06397308 64751","EPOCH":"2021-12-01T08:27:50.296608","OBJECT_ID":"2020-070AK","OBJECT_NAME":"STARLINK-1735","APOAPSIS":"548.382","MEAN_ELEMENT_THEORY":"SGP4","OBJECT_TYPE":"PAYLOAD","SEMIMAJOR_AXIS":"6925.357","FILE":"3229140","DECAY_DATE":null,"PERIOD":"95.592","REV_AT_EPOCH":"6475","RCS_SIZE":"LARGE","GP_ID":"190861292","PERIAPSIS":"546.061","INCLINATION":"53.0647","MEAN_MOTION":"15.06397308","NORAD_CAT_ID":"46565","EPHEMERIS_TYPE":"0","CENTER_NAME":"EARTH","TIME_SYSTEM":"UTC","CLASSIFICATION_TYPE":"U","LAUNCH_DATE":"2020-10-06"},{"MEAN_MOTION_DOT":"0.00001422","REF_FRAME":"TEME","EPOCH":"2021-12-01T20:50:54.748608","TLE_LINE2":"2 46566  53.0538 314.4496 0001829  55.4317 304.6844 15.06401752 64515","MEAN_ANOMALY":"304.6844","MEAN_MOTION_DDOT":"0.0000000000000","SITE":"AFETR","COUNTRY_CODE":"US","TLE_LINE1":"1 46566U 20070AL  21335.86868922  .00001422  00000-0  11437-3 0  9997","ELEMENT_SET_NO":"999","RA_OF_ASC_NODE":"314.4496","BSTAR":"0.00011437000000","ARG_OF_PERICENTER":"55.4317","ECCENTRICITY":"0.00018290","EPHEMERIS_TYPE":"0","CENTER_NAME":"EARTH","CLASSIFICATION_TYPE":"U","TIME_SYSTEM":"UTC","LAUNCH_DATE":"2020-10-06","INCLINATION":"53.0538","MEAN_MOTION":"15.06401752","NORAD_CAT_ID":"46566","FILE":"3229356","DECAY_DATE":null,"PERIOD":"95.592","SEMIMAJOR_AXIS":"6925.343","REV_AT_EPOCH":"6451","RCS_SIZE":"LARGE","GP_ID":"190866815","PERIAPSIS":"545.942","OBJECT_ID":"2020-070AL","OBJECT_NAME":"STARLINK-1740","MEAN_ELEMENT_THEORY":"SGP4","APOAPSIS":"548.475","OBJECT_TYPE":"PAYLOAD"},{"FILE":"3229140","SEMIMAJOR_AXIS":"6925.352","DECAY_DATE":null,"PERIOD":"95.592","RCS_SIZE":"LARGE","REV_AT_EPOCH":"6476","PERIAPSIS":"545.943","GP_ID":"190859791","OBJECT_ID":"2020-070AM","APOAPSIS":"548.491","MEAN_ELEMENT_THEORY":"SGP4","OBJECT_TYPE":"PAYLOAD","OBJECT_NAME":"STARLINK-1741","EPHEMERIS_TYPE":"0","TIME_SYSTEM":"UTC","CLASSIFICATION_TYPE":"U","LAUNCH_DATE":"2020-10-06","CENTER_NAME":"EARTH","INCLINATION":"53.0554","NORAD_CAT_ID":"46567","MEAN_MOTION":"15.06398848","COUNTRY_CODE":"US","TLE_LINE1":"1 46567U 20070AM  21335.36740298  .00000705  00000-0  66228-4 0  9990","SITE":"AFETR","RA_OF_ASC_NODE":"316.7017","ELEMENT_SET_NO":"999","BSTAR":"0.00006622800000","ARG_OF_PERICENTER":"62.1431","ECCENTRICITY":"0.00018400","MEAN_MOTION_DOT":"0.00000705","TLE_LINE2":"2 46567  53.0554 316.7017 0001840  62.1431 297.9744 15.06398848 64764","EPOCH":"2021-12-01T08:49:03.617472","REF_FRAME":"TEME","MEAN_MOTION_DDOT":"0.0000000000000","MEAN_ANOMALY":"297.9744"}];
